TIGER OUTPUT ADDRESS,City,State,Zip,LON,LAT
23 N WEKIWA SPRINGS RD, APOPKA, FL,32703,-81.46794955,28.67943633
305 S HIGHLAND AVE, APOPKA, FL,32703,-81.50528699,28.67392872
204 S CENTRAL AVE, APOPKA, FL,32703,-81.51159065,28.67542279
2484 COBBLEFIELD CIR, APOPKA, FL,32703,-81.49238296,28.64240754
2505 E SEMORAN BLVD, APOPKA, FL,32703,-81.46473404,28.67302592
2334 E SEMORAN BLVD, APOPKA, FL,32703,-81.46834985,28.67274933
2295 E SEMORAN BLVD, APOPKA, FL,32703,-81.46830968,28.67306378
11184 S APOPKA VINELAND RD, ORLANDO, FL,32836,-81.50323548,28.40334231
8464 WINTER GARDEN VINELAND RD, ORLANDO, FL,32836,-81.55230393,28.44437856
11659 RUBY LAKE RD, ORLANDO, FL,32836,-81.50307079,28.39671475
11551 RUBY LAKE RD, ORLANDO, FL,32836,-81.50307896,28.39799608
11100 GALVIN DR, ORLANDO, FL,32837,-81.41692402,28.40817639
12601 BALCOMBE RD, ORLANDO, FL,32837,-81.39863059,28.38428024
13740 TOWN LOOP BLVD, ORLANDO, FL,32837,-81.42986791,28.36293336
12853 ENCLAVE DR, ORLANDO, FL,32837,-81.39936381,28.37736699
3010 HUNTER'S CREEK BLVD, ORLANDO, FL,32837,-81.41827274,28.35297041
11340 S ORANGE BLOSSOM TRL, ORLANDO, FL,32837,-81.40476536,28.40134778
5118 TERRA VISTA WAY, ORLANDO, FL,32837,-81.4558344,28.35978786
4124 W TOWN CENTER BLVD, ORLANDO, FL,32837,-81.42696254,28.36305448
12307 S ORANGE BLOSSOM TRL, ORLANDO, FL,32837,-81.40434483,28.3850842
2111 SPICE AVE, ORLANDO, FL,32837,-81.40659366,28.38957766
11513 S ORANGE BLOSSOM TRL, ORLANDO, FL,32837,-81.40443118,28.39933424
1900 CENTRAL FLORIDA PKWY, ORLANDO, FL,32837,-81.4009912,28.40674447
12050 CRYSTAL COMMERCE WAY, ORLANDO, FL,32837,-81.42652921,28.38933443
5343 ANSONIA CT, ORLANDO, FL,32839,-81.41263844,28.48470124
4050 QUEEN ANNE DR, ORLANDO, FL,32839,-81.4280086,28.47908049
1616 HONOUR RD, ORLANDO, FL,32839,-81.40130219,28.49072516
2035 LA DUE CT, ORLANDO, FL,32811,-81.44061667,28.5174983
1825 BUCHANAN BAY CIR, ORLANDO, FL,32839,-81.40840935,28.4931259
5151 RALEIGH ST, ORLANDO, FL,32811,-81.44787621,28.52781541
5516 S TEXAS AVE, ORLANDO, FL,32839,-81.40920657,28.47885997
4743 RALEIGH ST, ORLANDO, FL,32811,-81.44138931,28.52788413
5389 CONROY RD, ORLANDO, FL,32811,-81.45247155,28.49439801
101 CLARKE RD, OCOEE, FL,34761,-81.51732361,28.56860136
1878 ATTUCKS AVE, ORLANDO, FL,32811,-81.43149584,28.52001565
1610 N LAKEWOOD AVE, OCOEE, FL,34761,-81.54263237,28.58709403
312 PEARLWOOD ST, ORLANDO, FL,32811,-81.4466826,28.54546705
11002 WINSHIRE BLVD, OCOEE, FL,34761,-81.54266414,28.53542655
4055 COVINGTON ST, ORLANDO, FL,32811,-81.42743617,28.51939596
2508 REDBERRY WAY, OCOEE, FL,34761,-81.51836406,28.60612161
29 S IVEY LN, ORLANDO, FL,32811,-81.43438865,28.54161493
860 TOMYN BLVD, WINTER GARDEN, FL,34787,-81.55835306,28.53003112
3401 S CONWAY RD, ORLANDO, FL,32812,-81.33076214,28.50234388
1025 S CLARKE RD, OCOEE, FL,34761,-81.52044008,28.55478974
2929 CONDEL DR, ORLANDO, FL,32812,-81.33566701,28.50923279
1601 A D MIMS RD, OCOEE, FL,34761,-81.52283665,28.5850031
5235 HOFFNER AVE, ORLANDO, FL,32812,-81.31803713,28.48064451
5037 BLUE MAJOR DR, WINDERMERE, FL,34786,-81.59185266,28.49186681
5066 S CONWAY RD, ORLANDO, FL,32812,-81.33095062,28.48183985
1801 ROUSE RD, ORLANDO, FL,32817,-81.22379374,28.56883824
12144 CHASE RD, WINDERMERE, FL,34786,-81.56020406,28.46421358
8414 E COLONIAL DR, ORLANDO, FL,32817,-81.27288768,28.56815135
13229 ROSKIN LN, WINDERMERE, FL,34786,-81.57980809,28.4595558
6421 UNDINE WAY, ORLANDO, FL,32818,-81.47035998,28.60164002
11815 SILVERLAKE PARK DR, WINDERMERE, FL,34786,-81.56146316,28.44347621
9131 MR LINCOLN CT, ORLANDO, FL,32818,-81.51171722,28.55920295
6290 LAKE SMITH CIR, WINDERMERE, FL,34786,-81.58841789,28.47672879
1513 HINCKLEY RD, ORLANDO, FL,32818,-81.46851213,28.56008553
311 N DILLARD ST, WINTER GARDEN, FL,34787,-81.58354559,28.56946852
644 DORSCHER RD, ORLANDO, FL,32818,-81.48423288,28.55024782
4161 N POWERS DR, ORLANDO, FL,32818,-81.46779322,28.59436102
14229 COUNTRY ESTATE DR, WINTER GARDEN, FL,34787,-81.59640863,28.52385248
6303 JENNIFER JEAN DR, ORLANDO, FL,32818,-81.46859971,28.6031588
989 GLENMEADOW DR, WINTER GARDEN, FL,34787,-81.57252509,28.58371895
7698 SILVER STAR RD, ORLANDO, FL,32818,-81.48891885,28.57743104
861 W LAKE MANN DR, ORLANDO, FL,32805,-81.42315184,28.53085361
8151 CLARCONA OCOEE RD, ORLANDO, FL,32818,-81.49606942,28.61253241
2448 29TH ST, ORLANDO, FL,32805,-81.40919583,28.51249363
6326 W COLONIAL DR, ORLANDO, FL,32818,-81.46810326,28.55194236
3000 C R SMITH ST, ORLANDO, FL,32805,-81.41414389,28.53444707
6308 W COLONIAL DR, ORLANDO, FL,32818,-81.46783487,28.55194236
8185 SUMMERLAKE GROVES ST, WINTER GARDEN, FL,34787,-81.62107264,28.44983527
1430 W KALEY ST, ORLANDO, FL,32805,-81.39981197,28.51993825
6848 SILVER STAR RD, ORLANDO, FL,32818,-81.47317891,28.57742734
1001 W PLANT ST, WINTER GARDEN, FL,34787,-81.60090014,28.56073311
2385 W CHURCH ST, ORLANDO, FL,32805,-81.41292391,28.54010216
7230 W COLONIAL DR, ORLANDO, FL,32818,-81.47973305,28.55185912
1101 S PARK AVE, WINTER GARDEN, FL,34787,-81.59174015,28.55097456
1264 S RIO GRANDE AVE, ORLANDO, FL,32805,-81.40128837,28.52657247
7231 PLANTAIN DR, ORLANDO, FL,32818,-81.48646091,28.56153089
700 9TH ST, WINTER GARDEN, FL,34787,-81.57529163,28.55641456
1342 BRUTON BLVD, ORLANDO, FL,32805,-81.42613645,28.52570153
2817 N POWERS DR, ORLANDO, FL,32818,-81.46770542,28.58032599
1407 KENNY CT, WINTER GARDEN, FL,34787,-81.5645208,28.56359971
1800 W WASHINGTON ST, ORLANDO, FL,32805,-81.40432809,28.54419709
8434 BANYAN BLVD, ORLANDO, FL,32819,-81.49890408,28.46761238
13337 W COLONIAL DR, WINTER GARDEN, FL,34787,-81.58032748,28.55114216
1102 26TH ST, ORLANDO, FL,32805,-81.39500314,28.51546174
8025 OAK PARK RD, ORLANDO, FL,32819,-81.49214544,28.48924597
3006 S RIO GRANDE AVE, ORLANDO, FL,32805,-81.40120686,28.51061761
1801 SEATONHAM ST, WINTER GARDEN, FL,34787,-81.61631066,28.51293108
8343 TANSY DR, ORLANDO, FL,32819,-81.49739246,28.46685397
13 E CYPRESS ST, WINTER GARDEN, FL,34787,-81.58543734,28.55659295
3099 ORANGE CENTER BLVD, ORLANDO, FL,32805,-81.41559693,28.5318248
8121 OAK PARK RD, ORLANDO, FL,32819,-81.49416809,28.48921684
1302 EDGEWAY DR, WINTER GARDEN, FL,34787,-81.56588631,28.56676536
297 S COTTAGE HILL RD, ORLANDO, FL,32805,-81.41586216,28.54007916
7900 S APOPKA VINELAND RD, ORLANDO, FL,32819,-81.49985447,28.45115759
16161 MARSH RD, WINTER GARDEN, FL,34787,-81.63262703,28.51728997
1033 W MICHIGAN ST, ORLANDO, FL,32805,-81.39323397,28.51468967
8711 SANDBERRY BLVD, ORLANDO, FL,32819,-81.50564269,28.47369584
1225 25TH ST, ORLANDO, FL,32805,-81.3960983,28.5164725
5129 S APOPKA VINELAND RD, ORLANDO, FL,32819,-81.50849793,28.48617805
2395 W CHURCH ST, ORLANDO, FL,32805,-81.41295635,28.5401017
6809 DAISY ST, ORLANDO, FL,32819,-81.47754819,28.46280343
624 BETHUNE DR, ORLANDO, FL,32805,-81.41975957,28.53364282
4819 SKEENA ST, ORLANDO, FL,32819,-81.44309282,28.45763797
422 S PARRAMORE AVE, ORLANDO, FL,32805,-81.38904602,28.53739879
6802 MANDARIN DR, ORLANDO, FL,32819,-81.44633359,28.46108147
2667 BRUTON BLVD, ORLANDO, FL,32805,-81.42590167,28.51299198
8029 CARAWAY DR, ORLANDO, FL,32819,-81.49195989,28.46517449
2500 BRUTON BLVD, ORLANDO, FL,32805,-81.42605204,28.51458725
7666 WALLACE RD, ORLANDO, FL,32819,-81.4849991,28.46079938
2301 E MICHIGAN ST, ORLANDO, FL,32806,-81.35335719,28.51332096
18555 OLD CHENEY HWY, ORLANDO, FL,32820,-81.10242721,28.5544874
2701 CONWAY GARDENS RD, ORLANDO, FL,32806,-81.33912508,28.51314218
10545 DEERGRASS LN, ORLANDO, FL,32821,-81.44741328,28.41311648
13502 TOWN LOOP BLVD, ORLANDO, FL,32837,-81.43103012,28.36433113
2740 E MICHIGAN ST, ORLANDO, FL,32806,-81.34811957,28.51313053
922 EGAN DR, ORLANDO, FL,32822,-81.28928238,28.53399486
2498 GINGER MILL BLVD, ORLANDO, FL,32837,-81.41151196,28.38358493
2447 RAEFORD RD, ORLANDO, FL,32806,-81.35068063,28.50959412
4000 S GOLDENROD RD, ORLANDO, FL,32822,-81.28551974,28.48829077
5741 W TOWN CENTER BLVD, ORLANDO, FL,32837,-81.4508046,28.35447331
1647 PEEL AVE, ORLANDO, FL,32806,-81.34747316,28.52269906
2493 ISLAND CLUB WAY, ORLANDO, FL,32822,-81.28161904,28.51297014
2405 E KALEY AVE, ORLANDO, FL,32806,-81.35154078,28.52050387
3973 ERIC CT, ORLANDO, FL,32822,-81.27572859,28.49771478
2533 MYAKKA DR, ORLANDO, FL,32839,-81.41339737,28.4841225
25 W JERSEY ST, ORLANDO, FL,32806,-81.37697135,28.51392396
1004 PONCE AVE, ORLANDO, FL,32822,-81.28269121,28.52364281
4540 S ORANGE BLOSSOM TRL, ORLANDO, FL,32839,-81.39693345,28.49843581
5600 OLD CHENEY HWY, ORLANDO, FL,32807,-81.31215282,28.56139909
7051 PERSHING AVE, ORLANDO, FL,32822,-81.29283453,28.49907396
1555 AMERICANA BLVD, ORLANDO, FL,32839,-81.40094848,28.48455661
6123 LA COSTA DR, ORLANDO, FL,32807,-81.30136304,28.52818404
2413 S GOLDENROD RD, ORLANDO, FL,32822,-81.28853805,28.5111551
4105 S NASHVILLE AVE, ORLANDO, FL,32839,-81.39893373,28.50159484
5725 DAHLIA DR, ORLANDO, FL,32807,-81.31010405,28.54588295
4400 WOODGATE BLVD, ORLANDO, FL,32822,-81.29672911,28.49996737
4974 MILLENIA BLVD, ORLANDO, FL,32839,-81.44220278,28.47861631
8024 RHEA CIR, ORLANDO, FL,32807,-81.27889669,28.57770954
4976 MILLENIA BLVD, ORLANDO, FL,32839,-81.44220268,28.47859287
2146 BRIDGEVIEW CIR, ORLANDO, FL,32824,-81.35433841,28.36298498
2304 N GOLDENROD RD, ORLANDO, FL,32807,-81.28637003,28.57803863
12100 KENDRA CT, ORLANDO, FL,32824,-81.38805603,28.39123321
8681 W IRLO BRONSON MEMORIAL HWY, KISSIMMEE, FL,34747,-81.62946261,28.34708315
900 ENGEL DR, ORLANDO, FL,32807,-81.30194913,28.53202147
1507 WOOD VIOLET DR, ORLANDO, FL,32824,-81.35936663,28.352023
5985 LA COSTA DR, ORLANDO, FL,32807,-81.30265587,28.52817465
9759 HOLLYHILL DR, ORLANDO, FL,32824,-81.35798191,28.42336211
825 GREENWAY PROFESSIONAL CT, ORLANDO, FL,32824,-81.36615666,28.37143785
304 E OAKLAND AVE, OAKLAND, FL,34760,-81.62353228,28.55466036
6939 YUCATAN DR, ORLANDO, FL,32807,-81.29033755,28.54607195
1212 HEATHER LAKE DR, ORLANDO, FL,32824,-81.37205921,28.35755077
1021 N GOLDENROD RD, ORLANDO, FL,32807,-81.28591091,28.5579546
10549 CABBAGE TREE LOOP, ORLANDO, FL,32825,-81.23044047,28.52616239
1 W OAKLAND AVE, OCOEE, FL,34761,-81.54420932,28.57060344
500 S SEMORAN BLVD, ORLANDO, FL,32807,-81.31067492,28.53695842
11001 LAKE UNDERHILL RD, ORLANDO, FL,32825,-81.226024,28.54173435
2245 STEFANSHIRE AVE, OCOEE, FL,34761,-81.50712026,28.58693435
148 COLEUS DR, ORLANDO, FL,32807,-81.30148311,28.54231287
1725 S DEAN RD, ORLANDO, FL,32825,-81.24002782,28.52405375
2009 FULLERS CROSS RD, OCOEE, FL,34761,-81.55258899,28.59518494
7723 TIMBER RIVER CIR, ORLANDO, FL,32807,-81.28542516,28.55969795
3100 SANCTUARY POINT BLVD, ORLANDO, FL,32825,-81.22110149,28.5101638
1501 E SILVER STAR RD, OCOEE, FL,34761,-81.52153561,28.57360536
4801 BASSWOOD LN, ORLANDO, FL,32808,-81.44533017,28.57748908
8959 W COLONIAL DR, OCOEE, FL,34761,-81.5080477,28.55197814
9000 LAKE UNDERHILL RD, ORLANDO, FL,32825,-81.2607607,28.53917136
4750 SILVER STAR RD, ORLANDO, FL,32808,-81.44480107,28.57785335
325 FIELDSTREAM BLVD, ORLANDO, FL,32825,-81.2284944,28.53860838
620 BANDERAS AVE, OCOEE, FL,34761,-81.53896216,28.56040408
1438 N PINE HILLS RD, ORLANDO, FL,32808,-81.45160106,28.57597733
942 GRASSY ISLAND LN, ORLANDO, FL,32825,-81.26367356,28.55602256
6440 W COLONIAL DR, ORLANDO, FL,32818,-81.46980187,28.55193192
2060 WEST RD, OCOEE, FL,34761,-81.5496218,28.60305037
1427 N PINE HILLS RD, ORLANDO, FL,32808,-81.4517589,28.57511172
222 NEIGHBORHOOD MARKET RD, ORLANDO, FL,32825,-81.27670209,28.54153669
8043 WINDY HILL WAY, ORLANDO, FL,32818,-81.4939488,28.56249649
5091 CATSPAW CT, ORLANDO, FL,32808,-81.44801231,28.60899994
10144 DORIATH CIR, ORLANDO, FL,32825,-81.2399384,28.51629336
6844 SILVER STAR RD, ORLANDO, FL,32818,-81.47317874,28.57742293
201 CLARKE RD, OCOEE, FL,34761,-81.51731461,28.56630636
805 FERGUSON DR, ORLANDO, FL,32808,-81.42002323,28.55404683
61 S DEAN RD, ORLANDO, FL,32825,-81.24422408,28.54149214
2625 N HIAWASSEE RD, ORLANDO, FL,32818,-81.47599612,28.57798488
1025 S CLARKE RD, OCOEE, FL,34761,-81.52044008,28.55478974
1301 N PINE HILLS RD, ORLANDO, FL,32808,-81.45205777,28.56864024
407 CASTING CT, ORLANDO, FL,32825,-81.23448071,28.53686545
7230 PLEASANT DR, ORLANDO, FL,32818,-81.48626827,28.56056317
1006 E CROWN POINT RD, OCOEE, FL,34761,-81.56082727,28.58481612
1238 N PINE HILLS RD, ORLANDO, FL,32808,-81.45136,28.56638453
7949 SOFT PINE CIR, ORLANDO, FL,32825,-81.28133569,28.55563954
1202 WISCONSIN AVE, SAINT CLOUD, FL,34769,-81.29034347,28.24695901
2108 SAN JOSE BLVD, ORLANDO, FL,32808,-81.44122231,28.56901661
53 S DEAN RD, ORLANDO, FL,32825,-81.24422488,28.54161235
4962 S APOPKA VINELAND RD, ORLANDO, FL,32819,-81.50858466,28.48887672
7866 WINTER GARDEN VINELAND RD, WINDERMERE, FL,34786,-81.56017029,28.44737466
4513 N PINE HILLS RD, ORLANDO, FL,32808,-81.45135519,28.5973445
1072 VISTA PALMA WAY, ORLANDO, FL,32825,-81.26056685,28.55593011
5715 TURKEY LAKE RD, ORLANDO, FL,32819,-81.47582072,28.48169053
300 MAIN ST, WINDERMERE, FL,34786,-81.5359169,28.49799956
6151 SILVER STAR RD, ORLANDO, FL,32808,-81.46611977,28.57788966
7113 WALLACE RD, ORLANDO, FL,32819,-81.47548929,28.46247097
4700 LINCOLN AVE, ORLANDO, FL,32819,-81.50024246,28.49303298
10102 JEPSON ST, ORLANDO, FL,32825,-81.2432285,28.55663272
4737 WILLAMETTE CIR, ORLANDO, FL,32826,-81.17396026,28.60840515
113 ROBERSON RD, WINDERMERE, FL,34786,-81.54289045,28.52973757
1101 N PINE HILLS RD, ORLANDO, FL,32808,-81.44972262,28.56160413
12050 E COLONIAL DR, ORLANDO, FL,32826,-81.20272931,28.56619209
5021 PUEBLO ST, ORLANDO, FL,32819,-81.44752901,28.45977472
9380 GOTHA RD, WINDERMERE, FL,34786,-81.51510118,28.52771136
1056 N PINE HILLS RD, ORLANDO, FL,32808,-81.44980347,28.56001947
1759 BONNEVILLE DR, ORLANDO, FL,32826,-81.18705223,28.56936739
5027 CASERTA ST, ORLANDO, FL,32819,-81.44795502,28.45500998
10710 PARK RIDGE GOTHA RD, WINDERMERE, FL,34786,-81.53862701,28.51880283
3850 WINTER ROSE DR, ORLANDO, FL,32810,-81.42634353,28.60784486
12702 SCIENCE DR, ORLANDO, FL,32826,-81.20086282,28.58122735
7606 AREZZO AVE, ORLANDO, FL,32819,-81.44875907,28.45483102
1130 E PLANT ST, WINTER GARDEN, FL,34787,-81.5708267,28.56889281
6000 W COLONIAL DR, ORLANDO, FL,32808,-81.46405122,28.55199567
5115 ANZIO ST, ORLANDO, FL,32819,-81.44861759,28.45574798
1041 N PINE HILLS RD, ORLANDO, FL,32808,-81.44948198,28.55963136
9186 DOWDEN RD, ORLANDO, FL,32827,-81.2639539,28.42977563
4851 S APOPKA VINELAND RD, ORLANDO, FL,32819,-81.5084445,28.49061734
220 WINDERMERE RD, WINTER GARDEN, FL,34787,-81.55849003,28.54205091
627 N PINE HILLS RD, ORLANDO, FL,32808,-81.44743078,28.5497885
9055 NORTHLAKE PKWY, ORLANDO, FL,32827,-81.26034164,28.4220976
8004 BANYAN BLVD, ORLANDO, FL,32819,-81.49166601,28.46763038
1221 BRICK RD, WINTER GARDEN, FL,34787,-81.60415392,28.55845519
1215 MERCY DR, ORLANDO, FL,32808,-81.43042108,28.55858824
7350 FUTURES DR, ORLANDO, FL,32819,-81.42895321,28.44110355
125 N LAKEVIEW AVE, WINTER GARDEN, FL,34787,-81.58769062,28.56663895
5086 NORTH LN, ORLANDO, FL,32808,-81.44998728,28.59629297
12537 HARNEY DR, ORLANDO, FL,32828,-81.20143558,28.53854567
18501 WASHINGTON AVE, ORLANDO, FL,32820,-81.10350374,28.55830294
1630 AVALON RD, WINTER GARDEN, FL,34787,-81.61203507,28.52730663
5135 BARNEGAT POINT RD, ORLANDO, FL,32808,-81.44576717,28.60498923
7317 MARSEILLE CIR, ORLANDO, FL,32822,-81.28591807,28.50903517
1211 WINTER GARDEN VINELAND RD, WINTER GARDEN, FL,34787,-81.58832407,28.52036095
2715 HIDDEN COVE CT, ORLANDO, FL,32822,-81.28439574,28.51151408
13478 SUMMER RAIN DR, ORLANDO, FL,32828,-81.16087088,28.53168307
2608 PIONEER RD, ORLANDO, FL,32808,-81.46369054,28.57808936
843 WOODBURY RD, ORLANDO, FL,32828,-81.19473779,28.55365846
1324 WINTER GARDEN VINELAND RD, WINTER GARDEN, FL,34787,-81.58779177,28.53736411
4008 N PINE HILLS RD, ORLANDO, FL,32808,-81.45151329,28.59250578
621 CANARY ISLAND CT, ORLANDO, FL,32828,-81.17184165,28.54468753
6820 HOFFNER AVE, ORLANDO, FL,32822,-81.2910912,28.48062837
1324 WINTER GARDEN VINELAND RD, WINTER GARDEN, FL,34787,-81.58779177,28.53736411
1531 MERCY DR, ORLANDO, FL,32808,-81.43046088,28.56267759
415 WOODBURY RD, ORLANDO, FL,32828,-81.19467734,28.54800552
1336 N PINE HILLS RD, ORLANDO, FL,32808,-81.45222174,28.57073896
8257 NARCOOSSEE PARK DR, ORLANDO, FL,32822,-81.27061497,28.45492287
1440 N PINE HILLS RD, ORLANDO, FL,32808,-81.45156249,28.57616002
13868 CAROLINA LAUREL DR, ORLANDO, FL,32828,-81.15196417,28.52167274
4531 ARCH ST, ORLANDO, FL,32808,-81.43546978,28.55704431
421 S GOLDENROD RD, ORLANDO, FL,32822,-81.2856004,28.53891397
1441 VINELAND RD, WINTER GARDEN, FL,34787,-81.5876235,28.54652238
1222 N PINE HILLS RD, ORLANDO, FL,32808,-81.45078873,28.56494559
13538 HIDDEN FOREST CIR, ORLANDO, FL,32828,-81.15534067,28.53403076
800 PAUL ST, ORLANDO, FL,32808,-81.46462859,28.55310604
6900 PERSHING AVE, ORLANDO, FL,32822,-81.29413514,28.49896837
33 N PARK AVE, APOPKA, FL,32703,-81.50937654,28.67837436
1012 N PINE HILLS RD, ORLANDO, FL,32808,-81.44924993,28.55883308
13461 TANJA KING BLVD, ORLANDO, FL,32828,-81.15093772,28.51223824
6225 HAZELTINE NATIONAL DR, ORLANDO, FL,32822,-81.29846684,28.45908082
262 S MCGEE AVE, APOPKA, FL,32703,-81.50067512,28.67436971
1109 N PINE HILLS RD, ORLANDO, FL,32808,-81.44971958,28.56168921
16245 BIRCHWOOD WAY, ORLANDO, FL,32828,-81.14037213,28.52710684
903 EMERALDA RD, ORLANDO, FL,32808,-81.45428588,28.55671716
7303 LAKE UNDERHILL RD, ORLANDO, FL,32822,-81.28762847,28.53921075
170 E MAGNOLIA ST, APOPKA, FL,32703,-81.5087082,28.67911094
820 SAN DOMINGO RD, ORLANDO, FL,32808,-81.45402188,28.55525297
4632 SADDLE CREEK PL, ORLANDO, FL,32829,-81.26565842,28.48758075
5815 VIKING RD, ORLANDO, FL,32808,-81.45934648,28.58824299
8131 SUN VISTA WAY, ORLANDO, FL,32822,-81.27663591,28.49079584
1935 S ORANGE BLOSSOM TRL, APOPKA, FL,32703,-81.46355539,28.64839948
4006 BRINELL AVE, ORLANDO, FL,32808,-81.42867416,28.55842236
3483 FOX HOLLOW DR, ORLANDO, FL,32829,-81.26481443,28.50137735
4862 INDIALANTIC DR, ORLANDO, FL,32808,-81.4468795,28.5721239
2333 E SEMORAN BLVD, APOPKA, FL,32703,-81.46785255,28.67305457
3604 DALEFORD RD, ORLANDO, FL,32808,-81.46098812,28.58906173
5209 VAN AKEN DR, ORLANDO, FL,32808,-81.45169032,28.59168394
2335 S GOLDENROD RD, ORLANDO, FL,32822,-81.28949448,28.51360754
1611 FINLEY AVE, APOPKA, FL,32703,-81.46328155,28.65455507
3615 N PINE HILLS RD, ORLANDO, FL,32808,-81.45144605,28.58810394
1851 S GOLDENROD RD, ORLANDO, FL,32822,-81.28543421,28.52461716
2413 N HASTINGS ST, ORLANDO, FL,32808,-81.45996582,28.57378396
3000 S CHICKASAW TRL, ORLANDO, FL,32829,-81.26908766,28.50762761
5705 INDIAN HILL RD, ORLANDO, FL,32808,-81.45820471,28.589073
4901 RED BAY DR, ORLANDO, FL,32829,-81.26535993,28.48285646
131 W 17TH ST, APOPKA, FL,32703,-81.51398704,28.65840993
1211 N PINE HILLS RD, ORLANDO, FL,32808,-81.45015975,28.56372783
12745 MOSS PARK RIDGE DR, ORLANDO, FL,32832,-81.20023218,28.42480623
4001 S GOLDENROD RD, ORLANDO, FL,32822,-81.28523794,28.48837391
328 W 17TH ST, APOPKA, FL,32703,-81.51813013,28.65834533
1250 N PINE HILLS RD, ORLANDO, FL,32808,-81.45179613,28.56746134
11800 NARCOOSSEE RD, ORLANDO, FL,32832,-81.24444415,28.39451605
4895 W COLONIAL DR, ORLANDO, FL,32808,-81.44519442,28.55267561
5449 S SEMORAN BLVD, ORLANDO, FL,32822,-81.30996236,28.48429521
441 S HIGHLAND AVE, APOPKA, FL,32703,-81.50528233,28.67257813
1307 N PINE HILLS RD, ORLANDO, FL,32808,-81.45208325,28.56999449
10974 SAVANNAH LANDING CIR, ORLANDO, FL,32832,-81.23023967,28.41238589
1228 N PINE HILLS RD, ORLANDO, FL,32808,-81.45100414,28.56548568
12529 GRECO DR, ORLANDO, FL,32824,-81.38493746,28.38940519
445 W 13TH ST, APOPKA, FL,32703,-81.52071284,28.6621205
1800 W OAK RIDGE RD, ORLANDO, FL,32809,-81.40214689,28.47246324
3215 CAESAR AVE, ORLANDO, FL,32833,-81.08672507,28.49938965
215 N CENTRAL AVE, APOPKA, FL,32703,-81.51143793,28.68077015
6231 HILLWOOD DR, ORLANDO, FL,32809,-81.43683668,28.46690463
1901 PARK CENTER DR, ORLANDO, FL,32835,-81.47195744,28.52235037
1112 N PINE HILLS RD, ORLANDO, FL,32808,-81.44984847,28.56173534
540 PINNACLE COVE BLVD, ORLANDO, FL,32824,-81.37216525,28.37236736
442 W 17TH ST, APOPKA, FL,32703,-81.52080867,28.65838728
5812 LABELLE ST, ORLANDO, FL,32809,-81.36011899,28.47471992
6549 OLD WINTER GARDEN RD, ORLANDO, FL,32835,-81.47190884,28.53873987
529 WECHSLER CIR, ORLANDO, FL,32824,-81.38931648,28.3943435
1010 W OAK RIDGE RD, ORLANDO, FL,32809,-81.39303249,28.47257138
4519 WINDSMERE BLVD, ORLANDO, FL,32835,-81.48112567,28.49597511
2701 N PINE HILLS RD, ORLANDO, FL,32808,-81.45146453,28.57968258
14840 WYNDHAM LAKES BLVD, ORLANDO, FL,32824,-81.33353567,28.35854288
1347 CONTREAU CT, APOPKA, FL,32703,-81.48238494,28.64865393
1877 W OAK RIDGE RD, ORLANDO, FL,32809,-81.40312148,28.47256579
40 N OBSERVATORY DR, ORLANDO, FL,32835,-81.4681806,28.54181939
1000 EMERALDA RD, ORLANDO, FL,32808,-81.45418679,28.55830927
601 E WETHERBEE RD, ORLANDO, FL,32824,-81.36749793,28.39244721
1537 S CENTRAL AVE, APOPKA, FL,32703,-81.51135656,28.65544575
7101 LAKE ELLENOR DR, ORLANDO, FL,32809,-81.40124133,28.4636857
4725 OKEEFE CT, ORLANDO, FL,32808,-81.4453104,28.58580756
990 CALIFORNIA WOODS CIR, ORLANDO, FL,32824,-81.35958977,28.39149241
1223 WYNDHAM PINE DR, APOPKA, FL,32712,-81.51460997,28.70021772
5401 BRITAN DR, ORLANDO, FL,32808,-81.46022183,28.60777479
9504 S ORANGE AVE, ORLANDO, FL,32824,-81.36950402,28.42860929
2612 PIONEER RD, ORLANDO, FL,32808,-81.46369135,28.57814592
201 S PARK AVE, APOPKA, FL,32703,-81.50938294,28.67566455
1022 S ORANGE BLOSSOM TRL, APOPKA, FL,32703,-81.48642906,28.66620329
1937 LAKEVILLE RD, APOPKA, FL,32703,-81.48034199,28.65141248
301 W WELCH RD, APOPKA, FL,32712,-81.51593118,28.70610054
2226 ROCK SPRINGS RD, APOPKA, FL,32712,-81.50912246,28.7168233
1550 N WEKIWA SPRINGS RD, APOPKA, FL,32712,-81.46782825,28.70722145
1101 WYMORE RD, MAITLAND, FL,32751,-81.38629441,28.64003025
1151 ROCK SPRINGS RD, APOPKA, FL,32712,-81.50900302,28.71472765
6200 S ORANGE BLOSSOM TRL, ORLANDO, FL,32809,-81.3967992,28.4672557
13001 LANDSTAR BLVD, ORLANDO, FL,32824,-81.3649238,28.37827061
4425 BERRY OAK DR, APOPKA, FL,32712,-81.55186687,28.75088681
209 W OAK RIDGE RD, ORLANDO, FL,32809,-81.37808789,28.47282097
800 N PINE HILLS RD, ORLANDO, FL,32808,-81.44763176,28.55404625
13175 LOOKING GLASS FALLS LN, ORLANDO, FL,32824,-81.3397778,28.37082598
1791 BELLE CHASE DR, APOPKA, FL,32712,-81.54002327,28.71582681
5908 GROVELINE DR, ORLANDO, FL,32810,-81.4741711,28.61620024
6408 JENNINGS RD, ORLANDO, FL,32818,-81.46867879,28.56622536
1411 MELANIE DR, ORLANDO, FL,32825,-81.25757734,28.56430554
220 HORATIO AVE W, MAITLAND, FL,32751,-81.36702064,28.62739939
7500 FOREST CITY RD, ORLANDO, FL,32810,-81.41517741,28.62465199
6145 SILVER STAR RD, ORLANDO, FL,32808,-81.46605604,28.57789173
11333 LAKE UNDERHILL RD, ORLANDO, FL,32825,-81.22145921,28.54501987
221 E KENNEDY BLVD, MAITLAND, FL,32751,-81.3826301,28.61832104
7563 FOREST CITY RD, ORLANDO, FL,32810,-81.4148535,28.62530157
1211 CITY PARK AVE, ORLANDO, FL,32808,-81.42985714,28.55730686
9307 CURRY FORD RD, ORLANDO, FL,32825,-81.25287077,28.51014069
230 S COLLEGE AVE, MAITLAND, FL,32751,-81.38148262,28.61571191
5029 EDGEWATER DR, ORLANDO, FL,32810,-81.40850551,28.60492578
1434 N PINE HILLS RD, ORLANDO, FL,32808,-81.45170634,28.57561582
9580 CURRY FORD RD, ORLANDO, FL,32825,-81.24936576,28.51002937
6209 ALL AMERICAN BLVD, ORLANDO, FL,32810,-81.41906257,28.61339416
1021 N PINE HILLS RD, ORLANDO, FL,32808,-81.44923108,28.55909204
10955 LAKE UNDERHILL RD, ORLANDO, FL,32825,-81.2263364,28.54151494
140 S WEST AVE, MAITLAND, FL,32751,-81.37778766,28.61663926
2905 JOYANN ST, ORLANDO, FL,32810,-81.41571116,28.63865709
1316 KIRK ST, ORLANDO, FL,32808,-81.46566156,28.55709152
10012 PORTALE AVE, ORLANDO, FL,32825,-81.24402562,28.56215641
636 N WYMORE RD, WINTER PARK, FL,32789,-81.38514139,28.60417809
824 PAUL ST, ORLANDO, FL,32808,-81.46462919,28.55330315
8117 GOLDEN CHICKASAW CIR, ORLANDO, FL,32825,-81.27639667,28.56145535
1851 GOODRICH AVE, WINTER PARK, FL,32789,-81.32871091,28.59891994
5415 OLD OAK TREE DR, ORLANDO, FL,32808,-81.44109361,28.61112687
10309 BRIDLEWOOD AVE, ORLANDO, FL,32825,-81.239524,28.55465193
877 N HASTINGS ST, ORLANDO, FL,32808,-81.45930964,28.5539384
236 N SWOOPE AVE, MAITLAND, FL,32751,-81.36181786,28.62864233
341 N ORLANDO AVE, MAITLAND, FL,32751,-81.36370559,28.62964912
1300 W MAITLAND BLVD, MAITLAND, FL,32751,-81.37793914,28.63091326
6803 OLD HWY 441, MOUNT DORA, FL,32757,-81.6310846,28.78215342
7228 EARLWOOD AVE, MOUNT DORA, FL,32757,-81.62988535,28.76308231
338 E LYMAN AVE, WINTER PARK, FL,32789,-81.34731552,28.59497113
225 S INTERLACHEN AVE, WINTER PARK, FL,32789,-81.34869865,28.59658084
1199 CLAY ST, WINTER PARK, FL,32789,-81.37327556,28.58773167
420 N ORLANDO AVE, WINTER PARK, FL,32789,-81.36507202,28.60231162
315 HOLT AVE, WINTER PARK, FL,32789,-81.35290092,28.59231394
6826 GOLDENEYE DR, ORLANDO, FL,32810,-81.47457779,28.62312334
125 N INTERLACHEN AVE, WINTER PARK, FL,32789,-81.34873163,28.59805673
1749 BRANCHWATER TRL, ORLANDO, FL,32825,-81.22744518,28.51919863
1776 MINNESOTA AVE, WINTER PARK, FL,32789,-81.37289867,28.58942735
1003 S KIRKMAN RD, ORLANDO, FL,32811,-81.45908669,28.52924964
5115 LONDONDERRY BLVD, ORLANDO, FL,32808,-81.44835637,28.58597752
1715 LAKE PICKETT RD, ORLANDO, FL,32826,-81.18226843,28.56575549
2949 SCARLET RD, WINTER PARK, FL,32792,-81.30954065,28.59720994
1819 WILLIAMS MANOR AVE, ORLANDO, FL,32811,-81.42864001,28.52218731
5800 GOLF CLUB PKWY, ORLANDO, FL,32808,-81.45772951,28.57255607
9145 N NARCOOSSEE RD, ORLANDO, FL,32827,-81.25686366,28.43442347
2803 WILL O TH GREEN, WINTER PARK, FL,32792,-81.31327291,28.59500942
667 PALMERA ST, ORLANDO, FL,32811,-81.44703234,28.53320442
1442 N PINE HILLS RD, ORLANDO, FL,32808,-81.45153339,28.57634206
9915 VICKERY PL, ORLANDO, FL,32827,-81.24588634,28.38626799
1001 S SEMORAN BLVD, WINTER PARK, FL,32792,-81.30722696,28.58188016
4075 L B MCLEOD RD, ORLANDO, FL,32811,-81.42739052,28.50881051
1400 JORDAN AVE, ORLANDO, FL,32809,-81.39662012,28.45935655
9618 LAKE NONA VILLAGE PL, ORLANDO, FL,32827,-81.25506029,28.42662728
823 S SEMORAN BLVD, WINTER PARK, FL,32792,-81.30680987,28.58618172
121 N PINE HILLS RD, ORLANDO, FL,32811,-81.4475168,28.54359647
6229 WINEGARD RD, ORLANDO, FL,32809,-81.38422722,28.46730323
2835 BONGART RD, WINTER PARK, FL,32792,-81.31188861,28.60531786
4527 CARTER ST, ORLANDO, FL,32811,-81.43748673,28.53440811
430 W LANCASTER RD, ORLANDO, FL,32809,-81.3825703,28.46535272
3625 AVALON PARK W BLVD, ORLANDO, FL,32828,-81.15596069,28.51209533
7507 ALOMA AVE, WINTER PARK, FL,32792,-81.28643501,28.6098625
925 S IVEY LN, ORLANDO, FL,32811,-81.43426716,28.52962692
2500 W OAK RIDGE RD, ORLANDO, FL,32809,-81.4120822,28.47233738
2876 S ALAFAYA TRL, ORLANDO, FL,32828,-81.18292571,28.51118784
2095 DUNDEE DR, WINTER PARK, FL,32792,-81.32505001,28.59442321
821 S KIRKMAN RD, ORLANDO, FL,32811,-81.45907712,28.53169643
426 W LANCASTER RD, ORLANDO, FL,32809,-81.38240162,28.46535338
1537 S ALAFAYA TRL, ORLANDO, FL,32828,-81.20130083,28.52497483
207 W LANCASTER RD, ORLANDO, FL,32809,-81.37856533,28.46550337
12881 TANJA KING BLVD, ORLANDO, FL,32828,-81.15636151,28.51290346
4015 W OAK RIDGE RD, ORLANDO, FL,32809,-81.42650197,28.47232597
450 W WELBOURNE AVE, WINTER PARK, FL,32789,-81.35516768,28.59666743
741 S PENNSYLVANIA AVE, WINTER PARK, FL,32789,-81.35682072,28.5916228
5025 OLD HOWELL BRANCH RD, WINTER PARK, FL,32792,-81.28236737,28.61158073
1902 TAYLOR AVE, WINTER PARK, FL,32792,-81.32726451,28.60395335
823 S SEMORAN BLVD, WINTER PARK, FL,32792,-81.30680987,28.58618172
4035 N GOLDENROD RD, WINTER PARK, FL,32792,-81.28644246,28.5974892
3001 N GOLDENROD RD, WINTER PARK, FL,32792,-81.28614967,28.58299894
813 N LAKEMONT AVE, WINTER PARK, FL,32792,-81.32817967,28.60550836
3377 ALOMA AVE, WINTER PARK, FL,32792,-81.30320498,28.60554407
106 E CHURCH ST, ORLANDO, FL,32801,-81.37629121,28.540325
401 MARK TWAIN BLVD, ORLANDO, FL,32828,-81.20092242,28.53938921
42 E JACKSON ST, ORLANDO, FL,32801,-81.37826393,28.53897336
900 W LANCASTER RD, ORLANDO, FL,32809,-81.39011385,28.46528041
357 AVALON PARK BLVD, ORLANDO, FL,32828,-81.15212146,28.54116917
2310 E CONCORD ST, ORLANDO, FL,32803,-81.35293502,28.55130487
623 W LANCASTER RD, ORLANDO, FL,32809,-81.38434655,28.46544997
2800 S ALAFAYA TRL, ORLANDO, FL,32828,-81.18359759,28.51146426
1187 FLORIDA MALL AVE, ORLANDO, FL,32809,-81.39731796,28.44857738
570 N ALAFAYA TRL, ORLANDO, FL,32828,-81.20753471,28.5653491
407 N HYER AVE, ORLANDO, FL,32803,-81.36639817,28.5486327
1118 W OAK RIDGE RD, ORLANDO, FL,32809,-81.39494807,28.47253672
13825 TOWNSEND DR, ORLANDO, FL,32828,-81.1818174,28.51128232
2600 E JACKSON ST, ORLANDO, FL,32803,-81.34971603,28.53954993
731 FAIRLANE AVE, ORLANDO, FL,32809,-81.36828853,28.47216745
839 GOLDEN POND CT, ORLANDO, FL,32828,-81.17957261,28.54556983
777 E PRINCETON ST, ORLANDO, FL,32803,-81.36827134,28.57168497
5607 HANSEL AVE, ORLANDO, FL,32809,-81.36797552,28.4764778
1331 S ALAFAYA TRL, ORLANDO, FL,32828,-81.20151999,28.52502731
505 E RIDGEWOOD ST, ORLANDO, FL,32803,-81.37149142,28.54671095
6225 BROOKGREEN AVE, ORLANDO, FL,32809,-81.43103516,28.4669165
12800 WATERFORD LAKES PKWY, ORLANDO, FL,32828,-81.20639279,28.55761188
2800 N ORANGE AVE, ORLANDO, FL,32804,-81.37301965,28.57669712
6316 MATCHETT RD, ORLANDO, FL,32809,-81.36298206,28.46900928
1300 EDGEWATER DR, ORLANDO, FL,32804,-81.38939312,28.56302795
7641 MAGNOLIA HOMES RD, ORLANDO, FL,32810,-81.42737523,28.62614241
5744 CROWNTREE LN, ORLANDO, FL,32829,-81.24957426,28.47920396
5763 GRAND CANYON DR, ORLANDO, FL,32810,-81.45868834,28.61780435
400 S LAKEMONT AVE, WINTER PARK, FL,32792,-81.32778386,28.59351773
3109 UNION ST, ZELLWOOD, FL,32798,-81.60119113,28.72884774
101 N PARRAMORE AVE, ORLANDO, FL,32801,-81.38900166,28.54391195
18 N TERRY AVE, ORLANDO, FL,32801,-81.38706965,28.54261844
626 LAKE DOT CIR, ORLANDO, FL,32801,-81.38744219,28.55138368
309 E COLONIAL DR, ORLANDO, FL,32801,-81.37361953,28.55318195
424 RUTH LN, ORLANDO, FL,32801,-81.37495578,28.54802305
1862 E WINTER PARK RD, WINTER PARK, FL,32789,-81.34621842,28.58050818
319 S LAKEWOOD DR, ORLANDO, FL,32803,-81.3450895,28.53946385
2618 E ROBINSON ST, ORLANDO, FL,32803,-81.34963036,28.54589965
4005 EDGEWATER DR, ORLANDO, FL,32804,-81.39393256,28.58971156
6537 VISTA PARK BLVD, ORLANDO, FL,32829,-81.26558799,28.46766916
2499 N WESTMORELAND DR, ORLANDO, FL,32804,-81.39353744,28.57382133
4300 CLARCONA OCOEE RD, ORLANDO, FL,32810,-81.4323915,28.61261602
8712 LEE VISTA BLVD, ORLANDO, FL,32829,-81.26565662,28.47002127
1914 EDGEWATER DR, ORLANDO, FL,32804,-81.38947231,28.56893648
6214 FOREST CITY RD, ORLANDO, FL,32810,-81.41503466,28.61345448
2800 VISTA BLVD, ORLANDO, FL,32830,-81.53265707,28.39089826
1039 W FAIRBANKS AVE, ORLANDO, FL,32804,-81.39473903,28.5965817
731 ALFRED DR, ORLANDO, FL,32810,-81.39003339,28.61114581
10275 SAVANNAH PARK DR, ORLANDO, FL,32832,-81.24097742,28.41935195
1002 CARTER ST, ORLANDO, FL,32805,-81.39327706,28.53465336
433 W KENNEDY BLVD, ORLANDO, FL,32810,-81.39360212,28.618564
11700 DEER PATH WAY, ORLANDO, FL,32832,-81.20530239,28.41889715
440 N TAMPA AVE, ORLANDO, FL,32805,-81.40567856,28.54830905
2650 PEMBROOK DR, ORLANDO, FL,32810,-81.41392691,28.63271373
9830 MERE PKWY, ORLANDO, FL,32832,-81.23745289,28.35991609
644 FERGUSON DR, ORLANDO, FL,32805,-81.42013711,28.55119143
6924 FOREST CITY RD, ORLANDO, FL,32810,-81.41511243,28.62001461
1815 W WASHINGTON ST, ORLANDO, FL,32805,-81.40369735,28.544257
5554 CLARCONA OCOEE RD, ORLANDO, FL,32810,-81.46511106,28.61069065
11101 MOSS PARK RD, ORLANDO, FL,32832,-81.22279701,28.41467198
647 INDIANA ST, ORLANDO, FL,32805,-81.38770837,28.52567716
7301 EDGEWATER DR, ORLANDO, FL,32810,-81.43971687,28.62274629
10743 NARCOOSSEE RD, ORLANDO, FL,32832,-81.2431538,28.40923566
725 S GOLDWYN AVE, ORLANDO, FL,32805,-81.41789166,28.53233136
5413 EDGEWATER DR, ORLANDO, FL,32810,-81.41126059,28.60715215
7325 CONROY WINDERMERE RD, ORLANDO, FL,32835,-81.48024857,28.49370997
4093 COLUMBIA ST, ORLANDO, FL,32811,-81.42798156,28.52702394
1100 N FERNCREEK AVE, ORLANDO, FL,32803,-81.36047521,28.5598769
200 E EVANS ST, ORLANDO, FL,32804,-81.37437664,28.57752935
2208 N RIO GRANDE AVE, ORLANDO, FL,32804,-81.40183824,28.57111824
644 W PRINCETON ST, ORLANDO, FL,32804,-81.38804145,28.57110518
3760 N JOHN YOUNG PKWY, ORLANDO, FL,32804,-81.41681876,28.58381621
2828 EDGEWATER DR, ORLANDO, FL,32804,-81.38959563,28.57714106
2138 W COLONIAL DR, ORLANDO, FL,32804,-81.40850578,28.55267346
2514 W COLONIAL DR, ORLANDO, FL,32804,-81.4081947,28.55267596
30 E EVANS ST, ORLANDO, FL,32804,-81.37817844,28.57752035
4501 GODDARD AVE, ORLANDO, FL,32804,-81.40197077,28.60025684
7209 TALLOWTREE LN, ORLANDO, FL,32835,-81.47976819,28.54441595
5143 OLD WINTER GARDEN RD, ORLANDO, FL,32811,-81.44835266,28.54130093
6549 OLD WINTER GARDEN RD, ORLANDO, FL,32835,-81.47190884,28.53873987
2173 LISTON CT, ORLANDO, FL,32811,-81.42741256,28.517552
6965 PIAZZA GRANDE AVE, ORLANDO, FL,32835,-81.48248869,28.5164843
4110 RALEIGH ST, ORLANDO, FL,32811,-81.42843501,28.52784937
6558 OLD WINTER GARDEN RD, ORLANDO, FL,32835,-81.47206283,28.5386423
4123 COLUMBIA ST, ORLANDO, FL,32811,-81.42888034,28.52702315
6573 OLD WINTER GARDEN RD, ORLANDO, FL,32835,-81.47235654,28.53878894
4674 BARLEY ST, ORLANDO, FL,32811,-81.43989505,28.54030404
6261 OLD WINTER GARDEN RD, ORLANDO, FL,32835,-81.46705864,28.53819994
933 S IVEY LN, ORLANDO, FL,32811,-81.43426716,28.52958044
7621 TELEGRAPH HILL RD, ORLANDO, FL,32835,-81.48649215,28.53618996
5200 W SOUTH ST, ORLANDO, FL,32811,-81.44854853,28.53770157
6395 RALEIGH ST, ORLANDO, FL,32835,-81.47005623,28.52699275
217 N KIRKMAN RD, ORLANDO, FL,32811,-81.45816271,28.54425485
11508 S APOPKA VINELAND RD, ORLANDO, FL,32836,-81.50396475,28.39805187
201 N KIRKMAN RD, ORLANDO, FL,32811,-81.45815435,28.54411177
5399 ROSEGAY CT, ORLANDO, FL,32811,-81.45109155,28.52497189
1515 EDGEWATER DR, ORLANDO, FL,32804,-81.38929442,28.56533696
1408 W MICHIGAN ST, ORLANDO, FL,32805,-81.39926345,28.51447537
3195 W CENTRAL BLVD, ORLANDO, FL,32805,-81.41790063,28.54184195
16 S DOLLINS AVE, ORLANDO, FL,32805,-81.40764293,28.54175469
1401 NIEUPORT LN, ORLANDO, FL,32805,-81.39185468,28.52492261
2610 ORANGE CENTER BLVD, ORLANDO, FL,32805,-81.41188699,28.53190649
1235 W MICHIGAN ST, ORLANDO, FL,32805,-81.39566171,28.51465131
1720 S RIO GRANDE AVE, ORLANDO, FL,32805,-81.4012641,28.52319879
701 W LIVINGSTON ST, ORLANDO, FL,32805,-81.38918129,28.54758424
944 W LAKE MANN DR, ORLANDO, FL,32805,-81.42312952,28.53220333
12355 S JOHN YOUNG PKWY, ORLANDO, FL,32837,-81.42503615,28.38277754
216 N IVEY LN, ORLANDO, FL,32811,-81.4345416,28.54376354
2000 FALCON TRACE BLVD, ORLANDO, FL,32837,-81.4042655,28.362067
5135 CURRY FORD RD, ORLANDO, FL,32812,-81.32221784,28.52439152
12908 S ORANGE BLOSSOM TRL, ORLANDO, FL,32837,-81.40465141,28.37714491
3636 E MICHIGAN ST, ORLANDO, FL,32812,-81.33838326,28.51321861
4113 HUNTERS PARK LN, ORLANDO, FL,32837,-81.42757112,28.36761123
1200 GASTON FOSTER RD, ORLANDO, FL,32812,-81.32499651,28.53027798
3215 S CONWAY RD, ORLANDO, FL,32812,-81.33075223,28.50405484
10249 S JOHN YOUNG PKWY, ORLANDO, FL,32837,-81.42263024,28.4167814
4709 CURRY FORD RD, ORLANDO, FL,32812,-81.32761098,28.52435582
10936 S TRAIL CIR, ORLANDO, FL,32837,-81.40564809,28.40880212
5495 LAKE MARGARET DR, ORLANDO, FL,32812,-81.31453609,28.50621884
14524 GATORLAND DR, ORLANDO, FL,32837,-81.40541228,28.35688168
5008 KEMPSTON DR, ORLANDO, FL,32812,-81.31585187,28.48227325
11189 S ORANGE BLOSSOM TRL, ORLANDO, FL,32837,-81.40445182,28.40365962
3300 S CONWAY RD, ORLANDO, FL,32812,-81.3310146,28.50323437
12601 BALCOMBE RD, ORLANDO, FL,32837,-81.39863059,28.38428024
1700 FIREHOUSE LN, ORLANDO, FL,32814,-81.33055101,28.56715999
2122 LONG ST, ORLANDO, FL,32805,-81.40771963,28.53549679
2622 S FERNCREEK AVE, ORLANDO, FL,32806,-81.3599181,28.51364364
3839 S FERNCREEK AVE, ORLANDO, FL,32806,-81.35969651,28.50166414
901 S BUMBY AVE, ORLANDO, FL,32806,-81.35168698,28.53134199
2517 CURRY FORD RD, ORLANDO, FL,32806,-81.35001913,28.52416596
2856 CURRY FORD RD, ORLANDO, FL,32806,-81.34654417,28.52408065
1616 CONWAY GARDENS RD, ORLANDO, FL,32806,-81.33934411,28.52092608
7651 VALENCIA COLLEGE LN, ORLANDO, FL,32807,-81.28390748,28.55379395
940 S SEMORAN BLVD, ORLANDO, FL,32807,-81.31060401,28.53110678
2064 TROPIC BAY CT, ORLANDO, FL,32807,-81.2936313,28.57325435
2047 PROSPECT AVE, ORLANDO, FL,32814,-81.33044441,28.57039091
9367 TREVARTHON RD, ORLANDO, FL,32817,-81.25808772,28.57649273
10047 E COLONIAL DR, ORLANDO, FL,32817,-81.24390893,28.56943695
2600 N DEAN RD, ORLANDO, FL,32817,-81.24514118,28.58243614
10250 UNIVERSITY BLVD, ORLANDO, FL,32817,-81.2396421,28.59744634
1912 N DEAN RD, ORLANDO, FL,32817,-81.24498817,28.57138397
7453 W COLONIAL DR, ORLANDO, FL,32818,-81.48346447,28.5521519
7429 W COLONIAL DR, ORLANDO, FL,32818,-81.48311378,28.55215425
6651 CURTIS ST, ORLANDO, FL,32807,-81.29657644,28.55914895
60 RANDIA DR, ORLANDO, FL,32807,-81.30014198,28.5477723
1840 N GOLDENROD RD, ORLANDO, FL,32807,-81.28629196,28.57246957
445 GASTON FOSTER RD, ORLANDO, FL,32807,-81.32494352,28.53748895
1295 N SEMORAN BLVD, ORLANDO, FL,32807,-81.3107126,28.5631772
1089 N GOLDENROD RD, ORLANDO, FL,32807,-81.28591466,28.5585157
26 WILLOW DR, ORLANDO, FL,32807,-81.30573799,28.54528948
5600 OLD CHENEY HWY, ORLANDO, FL,32807,-81.31215282,28.56139909
2042 N FORSYTH RD, ORLANDO, FL,32807,-81.29451153,28.57374617
1515 S SEMORAN BLVD, ORLANDO, FL,32807,-81.31026082,28.52474816
8001 E SILVER STAR RD, ORLANDO, FL,32818,-81.4912326,28.57766195
6837 W COLONIAL DR, ORLANDO, FL,32818,-81.47451587,28.55221632
8550 CLARCONA OCOEE RD, ORLANDO, FL,32818,-81.50225839,28.61241779
3311 N POWERS DR, ORLANDO, FL,32818,-81.46774148,28.58529001
5268 MACADAMIA CT, ORLANDO, FL,32818,-81.48282931,28.60752187
6700 SILVER STAR RD, ORLANDO, FL,32818,-81.47317241,28.57726338
609 N POWERS DR, ORLANDO, FL,32818,-81.46757933,28.55097613
6837 LAKEVILLE RD, APOPKA, FL,32703,-81.48024484,28.63255878
8640 PARK HIGHLAND DR, ORLANDO, FL,32818,-81.50236209,28.56599767
2008 N GOLDENROD RD, ORLANDO, FL,32807,-81.28633164,28.57425821
4680 LAKE UNDERHILL RD, ORLANDO, FL,32807,-81.32852783,28.53757955
1412 N PINE HILLS RD, ORLANDO, FL,32808,-81.4522377,28.57364867
1213 N PINE HILLS RD, ORLANDO, FL,32808,-81.45022936,28.56389979
1048 N PINE HILLS RD, ORLANDO, FL,32808,-81.44970311,28.55980374
615 N PINE HILLS RD, ORLANDO, FL,32808,-81.44742989,28.54936322
724 N HASTINGS ST, ORLANDO, FL,32808,-81.45943351,28.55332038
4955 ROSE AVE, ORLANDO, FL,32808,-81.44353327,28.61121377
3423 N PINE HILLS RD, ORLANDO, FL,32808,-81.45122216,28.58629163
